ONEWEB-0533             
1 55141U 23004B   24037.36827186 -.00000330  00000+0 -95340-3 0  9993
2 55141  87.9046 162.1105 0001718 110.9842 249.1471 13.12441651 55017
ONEWEB-0541             
1 55142U 23004C   24037.48793101  .00000570  00000+0  15728-2 0  9991
2 55142  87.8991 192.3369 0001422 103.0999 257.0288 13.11416759 53002
ONEWEB-0543             
1 55143U 23004D   24037.35892876  .00000069  00000+0  14335-3 0  9994
2 55143  87.9242 147.0651 0002035 103.5795 256.5563 13.18692566 56118
ONEWEB-0544             
1 55144U 23004E   24037.35261372  .00000088  00000+0  19077-3 0  9995
2 55144  87.9243 147.0498 0001599 101.1396 258.9916 13.18686112 56112
ONEWEB-0560             
1 55145U 23004F   24037.34629892  .00000140  00000+0  32165-3 0  9992
2 55145  87.9248 146.9941 0001922  91.6289 268.5063 13.18687064 56121
ONEWEB-0565             
1 55146U 23004G   24037.33996195  .00000099  00000+0  21716-3 0  9998
2 55146  87.9243 147.0797 0000907  92.1750 267.9486 13.18687170 56118
ONEWEB-0567             
1 55147U 23004H   24037.33365188  .00000124  00000+0  28163-3 0  9993
2 55147  87.9244 147.0338 0001726  85.3707 274.7622 13.18687643 56110
ONEWEB-0569             
1 55148U 23004J   24037.58335648  .00029319  00000+0  80031-1 0  9996
2 55148  87.9008 131.7071 0002064  71.6516 249.0352 13.13439614  5381
